OBJECT_NAME,OBJECT_ID,EPOCH,MEAN_MOTION,ECCENTRICITY,INCLINATION,RA_OF_ASC_NODE,ARG_OF_PERICENTER,MEAN_ANOMALY,EPHEMERIS_TYPE,CLASSIFICATION_TYPE,NORAD_CAT_ID,ELEMENT_SET_NO,REV_AT_EPOCH,BSTAR,MEAN_MOTION_DOT,MEAN_MOTION_DDOT
H-2A R/B,2006-002B,2026-07-22T09:06:19.866240,15.18528375,.00511727,98.2602,2.4119,141.8502,218.6370,0,U,28932,999,11486,.41958195E-3,.8885E-4,0
RESURS-DK 1,2006-021A,2026-07-22T07:59:27.691296,15.13337369,.00075242,69.9299,248.5646,263.4935,96.5374,0,U,29228,999,10789,.86164191E-4,.1431E-4,0
CZ-4B R/B,2006-046C,2026-07-22T14:05:28.046688,15.18023563,.00332838,97.5434,248.0858,156.8247,203.4496,0,U,29507,999,8050,.19830344E-3,.4021E-4,0
CZ-2C R/B,2007-010B,2026-07-22T06:49:09.725376,14.20283126,.00577949,98.4120,309.9228,262.7260,96.7345,0,U,31114,999,99882,.46613557E-4,.6E-6,0
COSMO-SKYMED 1,2007-023A,2026-07-22T14:58:03.065376,14.97250045,.00018263,97.8857,35.7804,93.6001,266.5429,0,U,31598,999,3509,.21868004E-3,.2472E-4,0
COSMOS 2428,2007-029A,2026-07-22T07:54:03.185856,14.12939546,.0007321,70.9381,280.6940,67.1112,293.0781,0,U,31792,999,98311,.203303E-3,.331E-5,0
SL-16 R/B,2007-029B,2026-07-22T13:12:27.675648,14.14856412,.00019269,70.9740,248.8911,259.9417,264.5264,0,U,31793,999,98444,.18592272E-3,.311E-5,0
KORONAS-FOTON,2009-003A,2026-07-22T06:53:26.744640,15.46425549,.00115017,82.4304,135.6274,40.0186,320.1909,0,U,33504,999,96652,.27079856E-3,.13476E-3,0
CZ-2C R/B,2011-030B,2026-07-22T09:09:21.429792,14.81541703,.00506484,97.8673,158.1388,272.0995,240.6030,0,U,37731,999,81003,.95139154E-4,.707E-5,0
H-2A R/B,2012-025E,2026-07-22T09:50:56.618592,14.95854711,.00427516,98.4852,181.4685,230.5218,129.2217,0,U,38341,999,76835,.16071382E-3,.1757E-4,0
SHIJIAN-16 (SJ-16),2013-057A,2026-07-22T15:05:36.585888,14.92683427,.00155037,74.9732,289.5552,146.9755,213.2405,0,U,39358,999,69163,.62760839E-4,.619E-5,0
SL-4 R/B,2014-021B,2026-07-22T13:43:16.442112,15.42590949,.0089311,51.6069,37.3363,235.6796,123.5713,0,U,39679,999,67707,.20890946E-3,.10225E-3,0
ALOS-2,2014-029A,2026-07-22T13:53:27.341952,14.79472685,.00016112,97.9225,300.2374,93.5156,266.6240,0,U,39766,999,65681,.19186427E-3,.1382E-4,0
YAOGAN-29,2015-069A,2026-07-22T14:21:26.844768,14.83111615,.00000851,98.0024,232.2850,64.8357,295.2865,0,U,41038,999,57587,.63568957E-4,.464E-5,0
ASTRO-H (HITOMI),2016-012A,2026-07-22T06:04:46.411680,15.10652747,.00096977,30.9973,207.6939,245.9322,114.0302,0,U,41337,999,57259,.10297418E-3,.1843E-4,0
HXMT (HUIYAN),2017-034A,2026-07-22T12:29:15.960768,15.18734331,.00312904,43.0151,346.2577,7.0253,353.1028,0,U,42758,999,50303,.24621677E-3,.5029E-4,0
SAOCOM 1A,2018-076A,2026-07-22T15:31:08.146848,14.82149231,.00014522,97.8897,29.8803,88.0048,272.1331,0,U,43641,999,42135,-.24395039E-4,-.246E-5,0
H-2A R/B,2018-084L,2026-07-22T06:39:22.042080,15.46397328,.002026,98.8521,89.8655,273.7768,86.1161,0,U,43682,999,42654,.43432138E-3,.21559E-3,0
SAOCOM 1B,2020-059A,2026-07-22T14:38:51.486432,14.82146680,.00015023,97.8902,28.9411,88.4564,271.6821,0,U,46265,999,31873,.6492982E-4,.465E-5,0
CSS (TIANHE),2021-035A,2026-07-22T10:58:54.030720,15.58249100,.00011997,41.4671,107.8074,305.3687,54.7038,0,U,48274,999,29867,.13441968E-3,.10144E-3,0
COSMOS 2550,2021-056A,2026-07-22T15:03:45.770112,15.33881886,.00085538,67.1442,352.6995,269.3774,90.6400,0,U,48865,999,28415,.1720348E-3,.5482E-4,0
CZ-2C R/B,2022-058K,2026-07-22T09:38:42.925344,15.64296268,.00299292,50.1858,339.9396,52.6816,307.6879,0,U,52794,999,23115,.44161328E-3,.43763E-3,0
CZ-2C R/B,2022-132E,2026-07-21T23:58:34.411296,15.75655151,.00084345,97.2895,211.6874,308.6978,51.3532,0,U,54039,999,21142,.47195042E-3,.72457E-3,0
GSLV R/B,2022-138AN,2026-07-22T06:29:36.311424,14.97406953,.00226639,87.3816,121.2035,28.4355,331.8108,0,U,54149,999,20406,.16876788E-3,.2E-4,0
XRISM,2023-137A,2026-07-22T02:22:16.467744,15.12705899,.0007828,31.0017,133.4085,314.7124,45.2877,0,U,57800,999,15815,.2229534E-3,.4102E-4,0
ACS3,2024-077B,2026-07-22T06:45:03.449088,13.95673740,.01303678,97.1773,114.3044,28.5064,332.3153,0,U,59588,999,11293,.26113133E-1,.38342E-3,0
SPACEMOBILE-003,2024-163A,2026-07-22T09:02:54.881376,15.20668610,.00036569,52.9684,147.6187,216.2180,143.8567,0,U,61045,999,10312,.96310167E-4,.1817E-4,0
SPACEMOBILE-005,2024-163B,2026-07-22T13:23:02.894496,15.20628898,.00083271,52.9737,146.7448,216.0593,143.9840,0,U,61046,999,10314,.25491002E-3,.5343E-4,0
SPACEMOBILE-001,2024-163C,2026-07-22T13:20:36.041280,15.20677464,.00068236,52.9703,146.4575,216.1814,143.8720,0,U,61047,999,10314,.34042584E-4,.43E-5,0
SPACEMOBILE-002,2024-163D,2026-07-22T03:30:09.144288,15.20474992,.00044252,52.9760,148.3864,214.1604,145.9106,0,U,61048,999,10308,.10065253E-2,.22005E-3,0
