H-2A R/B                
1 28932U 06002B   26203.37939660  .00008885  00000+0  41958-3 0  9996
2 28932  98.2602   2.4119 0051172 141.8502 218.6370 15.18528375114869
RESURS-DK 1             
1 29228U 06021A   26203.33295939  .00001431  00000+0  86164-4 0  9995
2 29228  69.9299 248.5646 0007524 263.4935  96.5374 15.13337369107894
CZ-4B R/B               
1 29507U 06046C   26203.58713017  .00004021  00000+0  19830-3 0  9994
2 29507  97.5434 248.0858 0033283 156.8247 203.4496 15.18023563 80509
CZ-2C R/B               
1 31114U 07010B   26203.28414034  .00000060  00000+0  46614-4 0  9997
2 31114  98.4120 309.9228 0057794 262.7260  96.7345 14.20283126998825
COSMO-SKYMED 1          
1 31598U 07023A   26203.62364659  .00002472  00000+0  21868-3 0  9994
2 31598  97.8857  35.7804 0001826  93.6001 266.5429 14.97250045 35093
COSMOS 2428             
1 31792U 07029A   26203.32920354  .00000331  00000+0  20330-3 0  9998
2 31792  70.9381 280.6940 0007321  67.1112 293.0781 14.12939546983118
SL-16 R/B               
1 31793U 07029B   26203.55032032  .00000311  00000+0  18592-3 0  9996
2 31793  70.9740 248.8911 0001926 259.9417 264.5264 14.14856412984444
KORONAS-FOTON           
1 33504U 09003A   26203.28711510  .00013476  00000+0  27080-3 0  9995
2 33504  82.4304 135.6274 0011501  40.0186 320.1909 15.46425549966520
CZ-2C R/B               
1 37731U 11030B   26203.38149803  .00000707  00000+0  95139-4 0  9999
2 37731  97.8673 158.1388 0050648 272.0995 240.6030 14.81541703810035
H-2A R/B                
1 38341U 12025E   26203.41037753  .00001757  00000+0  16071-3 0  9999
2 38341  98.4852 181.4685 0042751 230.5218 129.2217 14.95854711768358
SHIJIAN-16 (SJ-16)      
1 39358U 13057A   26203.62889567  .00000619  00000+0  62761-4 0  9999
2 39358  74.9732 289.5552 0015503 146.9755 213.2405 14.92683427691637
SL-4 R/B                
1 39679U 14021B   26203.57171808  .00010225  00000+0  20891-3 0  9994
2 39679  51.6069  37.3363 0089311 235.6796 123.5713 15.42590949677075
ALOS-2                  
1 39766U 14029A   26203.57878868  .00001382  00000+0  19186-3 0  9998
2 39766  97.9225 300.2374 0001611  93.5156 266.6240 14.79472685656819
YAOGAN-29               
1 41038U 15069A   26203.59822737  .00000464  00000+0  63569-4 0  9999
2 41038  98.0024 232.2850 0000085  64.8357 295.2865 14.83111615575879
ASTRO-H (HITOMI)        
1 41337U 16012A   26203.25331495  .00001843  00000+0  10297-3 0  9990
2 41337  30.9973 207.6939 0009697 245.9322 114.0302 15.10652747572592
HXMT (HUIYAN)           
1 42758U 17034A   26203.52032362  .00005029  00000+0  24622-3 0  9991
2 42758  43.0151 346.2577 0031290   7.0253 353.1028 15.18734331503037
SAOCOM 1A               
1 43641U 18076A   26203.64662207 -.00000246  00000+0 -24395-4 0  9996
2 43641  97.8897  29.8803 0001452  88.0048 272.1331 14.82149231421357
H-2A R/B                
1 43682U 18084L   26203.27733845  .00021559  00000+0  43432-3 0  9996
2 43682  98.8521  89.8655 0020260 273.7768  86.1161 15.46397328426541
SAOCOM 1B               
1 46265U 20059A   26203.61031813  .00000465  00000+0  64930-4 0  9995
2 46265  97.8902  28.9411 0001502  88.4564 271.6821 14.82146680318737
CSS (TIANHE)            
1 48274U 21035A   26203.45756980  .00010144  00000+0  13442-3 0  9999
2 48274  41.4671 107.8074 0001199 305.3687  54.7038 15.58249100298673
COSMOS 2550             
1 48865U 21056A   26203.62761308  .00005482  00000+0  17203-3 0  9995
2 48865  67.1442 352.6995 0008553 269.3774  90.6400 15.33881886284155
CZ-2C R/B               
1 52794U 22058K   26203.40188571  .00043763  00000+0  44161-3 0  9992
2 52794  50.1858 339.9396 0029929  52.6816 307.6879 15.64296268231158
CZ-2C R/B               
1 54039U 22132E   26202.99900939  .00072457  00000+0  47195-3 0  9994
2 54039  97.2895 211.6874 0008434 308.6978  51.3532 15.75655151211422
GSLV R/B                
1 54149U 22138AN  26203.27055916  .00002000  00000+0  16877-3 0  9990
2 54149  87.3816 121.2035 0022663  28.4355 331.8108 14.97406953204062
XRISM                   
1 57800U 23137A   26203.09880171  .00004102  00000+0  22295-3 0  9992
2 57800  31.0017 133.4085 0007828 314.7124  45.2877 15.12705899158155
ACS3                    
1 59588U 24077B   26203.28128992  .00038342  00000+0  26113-1 0  9992
2 59588  97.1773 114.3044 0130367  28.5064 332.3153 13.95673740112934
SPACEMOBILE-003         
1 61045U 24163A   26203.37702409  .00001817  00000+0  96310-4 0  9996
2 61045  52.9684 147.6187 0003656 216.2180 143.8567 15.20668610103122
SPACEMOBILE-005         
1 61046U 24163B   26203.55767239  .00005343  00000+0  25491-3 0  9998
2 61046  52.9737 146.7448 0008327 216.0593 143.9840 15.20628898103149
SPACEMOBILE-001         
1 61047U 24163C   26203.55597270  .00000430  00000+0  34043-4 0  9991
2 61047  52.9703 146.4575 0006823 216.1814 143.8720 15.20677464103146
SPACEMOBILE-002         
1 61048U 24163D   26203.14593917  .00022005  00000+0  10065-2 0  9999
2 61048  52.9760 148.3864 0004425 214.1604 145.9106 15.20474992103088
